ONEWEB-0589             
1 54655U 22166P   25188.77796842  .00000040  00000+0  65624-4 0  9996
2 54655  87.9272 312.6911 0001443 124.4686 235.6584 13.21824472126510
ONEWEB-0590             
1 54656U 22166Q   25187.89314063  .00000002  00000+0 -26226-4 0  9994
2 54656  87.9262 312.8462 0001642  88.5566 271.5756 13.21825772125918
ONEWEB-0591             
1 54657U 22166R   25187.90587910 -.00000181  00000+0 -46858-3 0  9991
2 54657  87.9274 312.8653 0001745  99.0288 261.1044 13.21825962126407
ONEWEB-0592             
1 54658U 22166S   25188.81739136 -.00000030  00000+0 -10476-3 0  9992
2 54658  87.9272 312.6352 0001773 100.3111 259.8223 13.21824132126414
ONEWEB-0593             
1 54659U 22166T   25188.38687178 -.00000005  00000+0 -44005-4 0  9991
2 54659  87.9272 312.7599 0001778 103.4439 256.6893 13.21824450125994
ONEWEB-0594             
1 54660U 22166U   25188.85996640  .00000018  00000+0  13201-4 0  9998
2 54660  87.9281 312.6792 0001980 100.9461 259.1895 13.21827654126532
ONEWEB-0595             
1 54661U 22166V   25188.38372135  .00000030  00000+0  40867-4 0  9996
2 54661  87.9272 312.7522 0002018  94.2864 265.8501 13.21824002125980
ONEWEB-0596             
1 54662U 22166W   25187.90272588  .00000052  00000+0  94776-4 0  9997
2 54662  87.9278 312.8609 0001869  98.1786 261.9560 13.21827713126393
